{"type": "FeatureCollection", "features": [ {"type": "Feature", "properties": {"norad_id": 66656, "name": "2025-274G", "group": "last-30-days", "lat": 34.722384768178465, "lon": 114.07633960806862, "alt_km": 583.3594663562826, "timestamp": "2025-12-27T17:24:56.104483+00:00", "meta": {"OBJECT_NAME": "2025-274G", "OBJECT_ID": "2025-274G", "EPOCH": "2025-12-27T05:30:13.305024", "MEAN_MOTION": 14.92361292, "ECCENTRICITY": 0.001307, "INCLINATION": 97.7403, "RA_OF_ASC_NODE": 288.1799, "ARG_OF_PERICENTER": 203.5179, "MEAN_ANOMALY": 156.5444, "EPHEMERIS_TYPE": 0, "CLASSIFICATION_TYPE": "U", "NORAD_CAT_ID": 66656, "ELEMENT_SET_NO": 999, "REV_AT_EPOCH": 456, "BSTAR": 0.00035725, "MEAN_MOTION_DOT": 3.604e-05, "MEAN_MOTION_DDOT": 0}, "tle": {"line1": "1 66656U 25274G   25361.22932066  .00003604  00000+0  35725-3 0  9993", "line2": "2 66656  97.7403 288.1799 0013070 203.5179 156.5444 14.92361292  4566"}}, "geometry": {"type": "Point", "coordinates": [114.07633960806862, 34.722384768178465]}}, {"type": "Feature", "properties": {"norad_id": 66657, "name": "SPIRONE", "group": "last-30-days", "lat": 14.935676332948477, "lon": 110.7545412008257, "alt_km": 586.4067944031913, "timestamp": "2025-12-27T17:24:56.104493+00:00", "meta": {"OBJECT_NAME": "SPIRONE", "OBJECT_ID": "2025-274H", "EPOCH": "2025-12-27T05:24:56.815776", "MEAN_MOTION": 14.92540543, "ECCENTRICITY": 0.0011001, "INCLINATION": 97.7401, "RA_OF_ASC_NODE": 288.1839, "ARG_OF_PERICENTER": 220.5482, "MEAN_ANOMALY": 139.4919, "EPHEMERIS_TYPE": 0, "CLASSIFICATION_TYPE": "U", "NORAD_CAT_ID": 66657, "ELEMENT_SET_NO": 999, "REV_AT_EPOCH": 456, "BSTAR": 0.00038856, "MEAN_MOTION_DOT": 3.941e-05, "MEAN_MOTION_DDOT": 0}, "tle": {"line1": "1 66657U 25274H   25361.22565759  .00003941  00000+0  38856-3 0  9997", "line2": "2 66657  97.7401 288.1839 0011001 220.5482 139.4919 14.92540543  4563"}}, "geometry": {"type": "Point", "coordinates": [110.7545412008257, 14.935676332948477]}}, {"type": "Feature", "properties": {"norad_id": 66658, "name": "2025-274J", "group": "last-30-days", "lat": -4.307216939015513, "lon": 108.09705955394963, "alt_km": 586.6890755923205, "timestamp": "2025-12-27T17:24:56.104505+00:00", "meta": {"OBJECT_NAME": "2025-274J", "OBJECT_ID": "2025-274J", "EPOCH": "2025-12-27T06:56:21.757344", "MEAN_MOTION": 14.92728348, "ECCENTRICITY": 0.0011458, "INCLINATION": 97.74, "RA_OF_ASC_NODE": 288.2548, "ARG_OF_PERICENTER": 223.447, "MEAN_ANOMALY": 136.5847, "EPHEMERIS_TYPE": 0, "CLASSIFICATION_TYPE": "U", "NORAD_CAT_ID": 66658, "ELEMENT_SET_NO": 999, "REV_AT_EPOCH": 457, "BSTAR": 0.00057573, "MEAN_MOTION_DOT": 5.897e-05, "MEAN_MOTION_DDOT": 0}, "tle": {"line1": "1 66658U 25274J   25361.28914071  .00005897  00000+0  57573-3 0  9998", "line2": "2 66658  97.7400 288.2548 0011458 223.4470 136.5847 14.92728348  4576"}}, "geometry": {"type": "Point", "coordinates": [108.09705955394963, -4.307216939015513]}}, {"type": "Feature", "properties": {"norad_id": 66659, "name": "JACK K", "group": "last-30-days", "lat": -24.55875170029571, "lon": 105.12984525112228, "alt_km": 586.4966478702945, "timestamp": "2025-12-27T17:24:56.104515+00:00", "meta": {"OBJECT_NAME": "JACK K", "OBJECT_ID": "2025-274K", "EPOCH": "2025-12-26T17:58:48.840096", "MEAN_MOTION": 14.92886476, "ECCENTRICITY": 0.00122459, "INCLINATION": 97.7403, "RA_OF_ASC_NODE": 287.7329, "ARG_OF_PERICENTER": 227.6944, "MEAN_ANOMALY": 132.3238, "EPHEMERIS_TYPE": 0, "CLASSIFICATION_TYPE": "U", "NORAD_CAT_ID": 66659, "ELEMENT_SET_NO": 999, "REV_AT_EPOCH": 449, "BSTAR": 0.00034058623, "MEAN_MOTION_DOT": 3.478e-05, "MEAN_MOTION_DDOT": 0}, "tle": {"line1": "1 66659U 25274K   25360.74917639  .00003478  00000+0  34059-3 0  9999", "line2": "2 66659  97.7403 287.7329 0012245 227.6944 132.3238 14.92886476  4494"}}, "geometry": {"type": "Point", "coordinates": [105.12984525112228, -24.55875170029571]}}, {"type": "Feature", "properties": {"norad_id": 66660, "name": "K-HERO", "group": "last-30-days", "lat": -41.12692922711662, "lon": 101.88106031604978, "alt_km": 586.1065553763137, "timestamp": "2025-12-27T17:24:56.104525+00:00", "meta": {"OBJECT_NAME": "K-HERO", "OBJECT_ID": "2025-274L", "EPOCH": "2025-12-26T17:54:27.478368", "MEAN_MOTION": 14.93036689, "ECCENTRICITY": 0.00128683, "INCLINATION": 97.7404, "RA_OF_ASC_NODE": 287.7384, "ARG_OF_PERICENTER": 228.4819, "MEAN_ANOMALY": 131.5297, "EPHEMERIS_TYPE": 0, "CLASSIFICATION_TYPE": "U", "NORAD_CAT_ID": 66660, "ELEMENT_SET_NO": 999, "REV_AT_EPOCH": 449, "BSTAR": 0.00032159571, "MEAN_MOTION_DOT": 3.294e-05, "MEAN_MOTION_DDOT": 0}, "tle": {"line1": "1 66660U 25274L   25360.74615137  .00003294  00000+0  32160-3 0  9996", "line2": "2 66660  97.7404 287.7384 0012868 228.4819 131.5297 14.93036689  4499"}}, "geometry": {"type": "Point", "coordinates": [101.88106031604978, -41.12692922711662]}}, {"type": "Feature", "properties": {"norad_id": 66661, "name": "SNUGLITE-III", "group": "last-30-days", "lat": -56.63646980537677, "lon": 96.78684564347884, "alt_km": 585.8930467734563, "timestamp": "2025-12-27T17:24:56.104536+00:00", "meta": {"OBJECT_NAME": "SNUGLITE-III", "OBJECT_ID": "2025-274M", "EPOCH": "2025-12-27T08:18:49.398048", "MEAN_MOTION": 14.93172598, "ECCENTRICITY": 0.0013509, "INCLINATION": 97.7402, "RA_OF_ASC_NODE": 288.3345, "ARG_OF_PERICENTER": 227.7351, "MEAN_ANOMALY": 132.2723, "EPHEMERIS_TYPE": 0, "CLASSIFICATION_TYPE": "U", "NORAD_CAT_ID": 66661, "ELEMENT_SET_NO": 999, "REV_AT_EPOCH": 458, "BSTAR": 0.00032165, "MEAN_MOTION_DOT": 3.307e-05, "MEAN_MOTION_DDOT": 0}, "tle": {"line1": "1 66661U 25274M   25361.34640507  .00003307  00000+0  32165-3 0  9993", "line2": "2 66661  97.7402 288.3345 0013509 227.7351 132.2723 14.93172598  4580"}}, "geometry": {"type": "Point", "coordinates": [96.78684564347884, -56.63646980537677]}}, {"type": "Feature", "properties": {"norad_id": 66662, "name": "2025-274N", "group": "last-30-days", "lat": -62.7362691050085, "lon": 93.40751205404018, "alt_km": 585.8044589971832, "timestamp": "2025-12-27T17:24:56.104548+00:00", "meta": {"OBJECT_NAME": "2025-274N", "OBJECT_ID": "2025-274N", "EPOCH": "2025-12-27T08:17:08.863008", "MEAN_MOTION": 14.93229633, "ECCENTRICITY": 0.0013937, "INCLINATION": 97.7402, "RA_OF_ASC_NODE": 288.3365, "ARG_OF_PERICENTER": 227.5135, "MEAN_ANOMALY": 132.4907, "EPHEMERIS_TYPE": 0, "CLASSIFICATION_TYPE": "U", "NORAD_CAT_ID": 66662, "ELEMENT_SET_NO": 999, "REV_AT_EPOCH": 458, "BSTAR": 0.00033773, "MEAN_MOTION_DOT": 3.48e-05, "MEAN_MOTION_DDOT": 0}, "tle": {"line1": "1 66662U 25274N   25361.34524147  .00003480  00000+0  33773-3 0  9993", "line2": "2 66662  97.7402 288.3365 0013937 227.5135 132.4907 14.93229633  4585"}}, "geometry": {"type": "Point", "coordinates": [93.40751205404018, -62.7362691050085]}}, {"type": "Feature", "properties": {"norad_id": 66664, "name": "SOYUZ-MS 28", "group": "last-30-days", "lat": 8.409780362388137, "lon": -118.46863408235947, "alt_km": 418.3867830925683, "timestamp": "2025-12-27T17:24:56.104558+00:00", "meta": {"OBJECT_NAME": "SOYUZ-MS 28", "OBJECT_ID": "2025-275A", "EPOCH": "2025-12-27T10:29:55.432032", "MEAN_MOTION": 15.49871717, "ECCENTRICITY": 0.0003234, "INCLINATION": 51.632, "RA_OF_ASC_NODE": 69.6861, "ARG_OF_PERICENTER": 310.1185, "MEAN_ANOMALY": 49.952, "EPHEMERIS_TYPE": 0, "CLASSIFICATION_TYPE": "U", "NORAD_CAT_ID": 66664, "ELEMENT_SET_NO": 999, "REV_AT_EPOCH": 54513, "BSTAR": 0.00024415, "MEAN_MOTION_DOT": 0.0001344, "MEAN_MOTION_DDOT": 0}, "tle": {"line1": "1 66664U 25275A   25361.43744713  .00013440  00000+0  24415-3 0  9999", "line2": "2 66664  51.6320  69.6861 0003234 310.1185  49.9520 15.49871717545131"}}, "geometry": {"type": "Point", "coordinates": [-118.46863408235947, 8.409780362388137]}}, {"type": "Feature", "properties": {"norad_id": 66666, "name": "FORMOSAT-8A", "group": "last-30-days", "lat": 46.64889710418593, "lon": -98.36175943434354, "alt_km": 559.6733325863079, "timestamp": "2025-12-27T17:24:56.104568+00:00", "meta": {"OBJECT_NAME": "FORMOSAT-8A", "OBJECT_ID": "2025-276A", "EPOCH": "2025-12-27T12:01:26.661792", "MEAN_MOTION": 15.00374072, "ECCENTRICITY": 0.0004165, "INCLINATION": 97.6576, "RA_OF_ASC_NODE": 73.2234, "ARG_OF_PERICENTER": 179.6359, "MEAN_ANOMALY": 180.4869, "EPHEMERIS_TYPE": 0, "CLASSIFICATION_TYPE": "U", "NORAD_CAT_ID": 66666, "ELEMENT_SET_NO": 999, "REV_AT_EPOCH": 430, "BSTAR": 0.00037883, "MEAN_MOTION_DOT": 4.699e-05, "MEAN_MOTION_DDOT": 0}, "tle": {"line1": "1 66666U 25276A   25361.50100303  .00004699  00000+0  37883-3 0  9990", "line2": "2 66666  97.6576  73.2234 0004165 179.6359 180.4869 15.00374072  4301"}}, "geometry": {"type": "Point", "coordinates": [-98.36175943434354, 46.64889710418593]}}, {"type": "Feature", "properties": {"norad_id": 66667, "name": "PELICAN-5", "group": "last-30-days", "lat": 58.063342985915575, "lon": -94.6567711407926, "alt_km": 506.9006226474103, "timestamp": "2025-12-27T17:24:56.104581+00:00", "meta": {"OBJECT_NAME": "PELICAN-5", "OBJECT_ID": "2025-276B", "EPOCH": "2025-12-27T10:33:14.670432", "MEAN_MOTION": 15.1763813, "ECCENTRICITY": 0.000257, "INCLINATION": 97.4406, "RA_OF_ASC_NODE": 72.9598, "ARG_OF_PERICENTER": 195.544, "MEAN_ANOMALY": 164.5716, "EPHEMERIS_TYPE": 0, "CLASSIFICATION_TYPE": "U", "NORAD_CAT_ID": 66667, "ELEMENT_SET_NO": 999, "REV_AT_EPOCH": 435, "BSTAR": 0.00045793, "MEAN_MOTION_DOT": 9.153e-05, "MEAN_MOTION_DDOT": 0}, "tle": {"line1": "1 66667U 25276B   25361.43975313  .00009153  00000+0  45793-3 0  9993", "line2": "2 66667  97.4406  72.9598 0002570 195.5440 164.5716 15.17638130  4352"}}, "geometry": {"type": "Point", "coordinates": [-94.6567711407926, 58.063342985915575]}}]}